{
  "type": "FeatureCollection",
  "features": [
    {
      "type": "Feature",
      "properties": {
        "norad_id": 50032,
        "name": "COSMOS 1408 DEB",
        "group": "cosmos-1408-debris",
        "lat": -11.091217955840284,
        "lon": 41.937151511083194,
        "alt_km": 444.3755474982472,
        "timestamp": "2025-12-27T11:23:20.168040+00:00",
        "meta_object_name": "COSMOS 1408 DEB",
        "meta_object_id": "1982-092RU",
        "meta_epoch": "2025-12-27T03:40:10.219584",
        "meta_mean_motion": 15.4583822,
        "meta_eccentricity": 0.0016709,
        "meta_inclination": 82.5632,
        "meta_ra_of_asc_node": 43.7342,
        "meta_arg_of_pericenter": 155.8656,
        "meta_mean_anomaly": 204.338,
        "meta_ephemeris_type": 0,
        "meta_classification_type": "U",
        "meta_norad_cat_id": 50032,
        "meta_element_set_no": 999,
        "meta_rev_at_epoch": 22826,
        "meta_bstar": 0.00011626,
        "meta_mean_motion_dot": 5.708e-05,
        "meta_mean_motion_ddot": 0,
        "tle_line1": "1 50032U 82092RU  25361.15289606  .00005708  00000+0  11626-3 0  9993",
        "tle_line2": "2 50032  82.5632  43.7342 0016709 155.8656 204.3380 15.45838220228268"
      },
      "geometry": {
        "type": "Point",
        "coordinates": [
          41.937151511083194,
          -11.091217955840284
        ]
      }
    },
    {
      "type": "Feature",
      "properties": {
        "norad_id": 50058,
        "name": "COSMOS 1408 DEB",
        "group": "cosmos-1408-debris",
        "lat": 73.04429729957442,
        "lon": -151.2806074652462,
        "alt_km": 360.4121479896148,
        "timestamp": "2025-12-27T11:23:20.168060+00:00",
        "meta_object_name": "COSMOS 1408 DEB",
        "meta_object_id": "1982-092SW",
        "meta_epoch": "2025-12-27T03:16:08.809248",
        "meta_mean_motion": 15.64984999,
        "meta_eccentricity": 0.0015749,
        "meta_inclination": 82.6117,
        "meta_ra_of_asc_node": 54.2636,
        "meta_arg_of_pericenter": 49.652,
        "meta_mean_anomaly": 310.6112,
        "meta_ephemeris_type": 0,
        "meta_classification_type": "U",
        "meta_norad_cat_id": 50058,
        "meta_element_set_no": 999,
        "meta_rev_at_epoch": 23029,
        "meta_bstar": 0.00035245,
        "meta_mean_motion_dot": 0.00034873,
        "meta_mean_motion_ddot": 0,
        "tle_line1": "1 50058U 82092SW  25361.13621307  .00034873  00000+0  35245-3 0  9995",
        "tle_line2": "2 50058  82.6117  54.2636 0015749  49.6520 310.6112 15.64984999230297"
      },
      "geometry": {
        "type": "Point",
        "coordinates": [
          -151.2806074652462,
          73.04429729957442
        ]
      }
    },
    {
      "type": "Feature",
      "properties": {
        "norad_id": 50404,
        "name": "COSMOS 1408 DEB",
        "group": "cosmos-1408-debris",
        "lat": 70.84245606639041,
        "lon": -3.3118021076950135,
        "alt_km": 422.87641042984797,
        "timestamp": "2025-12-27T11:23:20.168073+00:00",
        "meta_object_name": "COSMOS 1408 DEB",
        "meta_object_id": "1982-092ADS",
        "meta_epoch": "2025-12-26T23:49:41.077056",
        "meta_mean_motion": 15.16159411,
        "meta_eccentricity": 0.016566,
        "meta_inclination": 82.2019,
        "meta_ra_of_asc_node": 200.4168,
        "meta_arg_of_pericenter": 149.7673,
        "meta_mean_anomaly": 211.3249,
        "meta_ephemeris_type": 0,
        "meta_classification_type": "U",
        "meta_norad_cat_id": 50404,
        "meta_element_set_no": 999,
        "meta_rev_at_epoch": 21409,
        "meta_bstar": 0.0039409,
        "meta_mean_motion_dot": 0.00109479,
        "meta_mean_motion_ddot": 0,
        "tle_line1": "1 50404U 82092ADS 25360.99283654  .00109479  00000+0  39409-2 0  9992",
        "tle_line2": "2 50404  82.2019 200.4168 0165660 149.7673 211.3249 15.16159411214091"
      },
      "geometry": {
        "type": "Point",
        "coordinates": [
          -3.3118021076950135,
          70.84245606639041
        ]
      }
    },
    {
      "type": "Feature",
      "properties": {
        "norad_id": 50621,
        "name": "COSMOS 1408 DEB",
        "group": "cosmos-1408-debris",
        "lat": 80.33340690754255,
        "lon": 108.84759845899059,
        "alt_km": 368.73793245550314,
        "timestamp": "2025-12-27T11:23:20.168085+00:00",
        "meta_object_name": "COSMOS 1408 DEB",
        "meta_object_id": "1982-092ALR",
        "meta_epoch": "2025-12-27T03:19:16.705056",
        "meta_mean_motion": 15.57407549,
        "meta_eccentricity": 0.0029152,
        "meta_inclination": 82.5695,
        "meta_ra_of_asc_node": 59.1823,
        "meta_arg_of_pericenter": 101.1133,
        "meta_mean_anomaly": 259.3402,
        "meta_ephemeris_type": 0,
        "meta_classification_type": "U",
        "meta_norad_cat_id": 50621,
        "meta_element_set_no": 999,
        "meta_rev_at_epoch": 22474,
        "meta_bstar": 0.00039055,
        "meta_mean_motion_dot": 0.00029272,
        "meta_mean_motion_ddot": 0,
        "tle_line1": "1 50621U 82092ALR 25361.13838779  .00029272  00000+0  39055-3 0  9994",
        "tle_line2": "2 50621  82.5695  59.1823 0029152 101.1133 259.3402 15.57407549224749"
      },
      "geometry": {
        "type": "Point",
        "coordinates": [
          108.84759845899059,
          80.33340690754255
        ]
      }
    }
  ]
}